YAOGAN-34 03            
1 54249U 22154A   22349.20196459 -.00000090  00000+0  00000+0 0  9992
2 54249  63.4088 308.8806 0008921 272.6321  87.3669 13.45255851  4069
CZ-4C R/B               
1 54250U 22154B   22348.92502915 -.00000084  00000+0  12939-4 0  9992
2 54250  63.4114 306.5562 0123047  44.1655 316.9121 13.68845136  4097
2022-155A               
1 54251U 22155A   22349.35888741  .00006684  00000+0  41878-3 0  9990
2 54251  97.5354  93.6298 0014625 182.8663 262.1520 15.09595603  4398
2022-155B               
1 54252U 22155B   22349.49953775  .00006655  00000+0  41706-3 0  9994
2 54252  97.5409  93.7898 0014472 183.0950 305.6310 15.09595306  4412
2022-155C               
1 54253U 22155C   22349.29697502  .00006783  00000+0  42782-3 0  9993
2 54253  97.5386  93.5700 0014099 179.7189 264.2425 15.09356571  4379
2022-155D               
1 54254U 22155D   22349.35991615  .00006642  00000+0  41680-3 0  9993
2 54254  97.5387  93.6396 0014531 181.9349 263.4428 15.09544195  4394
2022-155E               
1 54255U 22155E   22349.22668241  .00006685  00000+0  41897-3 0  9993
2 54255  97.5382  93.5102 0013682 185.0706 262.2123 15.09595983  4370
SLS R/B                 
1 54258U 22156B   22320.38000000 -.00015394  00000+0  00000+0 0  9991
2 54258  30.5010  10.5910 9639665  20.8820   1.0790  0.10372534    41
EUTELSAT 10B            
1 54259U 22157A   22347.63101023 -.00000173  00000+0  33303-1 0  9990
2 54259  18.0468 294.5941 7870251 184.1688 159.0292  1.11012561   257
FALCON 9 R/B            
1 54260U 22157B   22347.47946354  .00003124  00000+0  14830-2 0  9991
2 54260  22.4719 294.2886 8185158 184.9727 151.8453  1.25051460   255
EOS-6 (OCEANSAT-3)      
1 54361U 22158A   22348.94073892  .00000386  00000+0  12302-3 0  9995
2 54361  98.3536  83.4473 0008103 171.0366 269.1427 14.45012289  2694
2022-158B               
1 54362U 22158B   22349.25351691  .00004783  00000+0  24490-3 0  9993
2 54362  97.4621  84.3118 0024072 180.3096 232.3252 15.16828879  2868
THYBOLT-1               
1 54363U 22158C   22349.22802269  .00013928  00000+0  65742-3 0  9999
2 54363  97.4500  84.1805 0011571 189.4408 254.4333 15.19502788  2869
THYBOLT-2               
1 54364U 22158D   22349.21815605  .00013725  00000+0  64785-3 0  9998
2 54364  97.4494  84.1714 0011532 189.4489 200.9733 15.19505776  2867
INS-2B                  
1 54365U 22158E   22349.22486822  .00013214  00000+0  61978-3 0  9999
2 54365  97.4445  84.1644 0011499 199.6488 243.5353 15.19734754  2861
ANAND                   
1 54366U 22158F   22349.22256519  .00011140  00000+0  52098-3 0  9997
2 54366  97.4428  84.1602 0010430 198.9166 244.7296 15.19888818  2866
ASTROCAST-0304          
1 54367U 22158G   22349.21773688  .00005668  00000+0  26470-3 0  9991
2 54367  97.4465  84.1865 0008207 194.9030 248.6671 15.20183979  2851
ASTROCAST-0303          
1 54368U 22158H   22349.48891471  .00006167  00000+0  28690-3 0  9993
2 54368  97.4489  84.4644 0008170 203.8354 288.8835 15.20280780  2906
ASTROCAST-0302          
1 54369U 22158J   22349.21478330  .00015852  00000+0  72608-3 0  9999
2 54369  97.4484  84.1972 0008125 210.6579 232.8363 15.20541286  2869
ASTROCAST-0301          
1 54370U 22158K   22349.21268053  .00008014  00000+0  36789-3 0  9992
2 54370  97.4485  84.1998 0008616 218.4290 225.1017 15.20643720  2868
DRAGON CRS-26           
1 54371U 22159A   22348.53710416  .00009522  00000+0  17497-3 0  9993
2 54371  51.6424 163.1631 0004043 160.0121 305.2827 15.49940175373158
2022-160A               
1 54372U 22160A   22349.34598072  .00010929  00000+0  46097-3 0  9999
2 54372  34.9971 115.7109 0005434  22.2976  70.2952 15.22515905  2725
2022-160B               
1 54373U 22160B   22349.12593750  .00022804  00000+0  92253-3 0  9994
2 54373  34.9984 117.0032 0008084  50.5657 308.5343 15.23789238  2683
2022-160C               
1 54374U 22160C   22349.47707704  .00008641  00000+0  36644-3 0  9994
2 54374  34.9971 114.9315 0005663  21.4450  54.3779 15.22373476  2702
2022-160D               
1 54375U 22160D   22349.39088666  .00025426  00000+0  10171-2 0  9991
2 54375  34.9988 115.2820 0008078  61.7904 332.9174 15.24149240  2739
2022-160E               
1 54376U 22160E   22349.30518073  .00011645  00000+0  49100-3 0  9996
2 54376  34.9976 116.0173 0007739  47.7436 161.9172 15.22503831  2718
COSMOS 2564 [GLONASS-M] 
1 54377U 22161A   22343.65354395  .00000039  00000+0  00000+0 0  9992
2 54377  64.7765 235.5555 0026905 231.5530 268.4925  2.13731023   237
FREGAT R/B              
1 54378U 22161B   22332.88538517  .00000006  00000+0  00000+0 0  9990
2 54378  64.7543 235.8312 0069964  61.3586  78.3433  2.10629160    00
SHENZHOU-15             
1 54379U 22162A   22348.74386491  .00021250  00000+0  26120-3 0  9995
2 54379  41.4742 199.6382 0004124 103.3009 352.4665 15.59756309 92997
COSMOS 2565             
1 54381U 22163A   22349.27286388 -.00000162  00000+0 -62377-4 0  9998
2 54381  67.1555 338.0791 0007162 264.5001  95.5205 13.96672548  2039
SL-4 R/B                
1 54382U 22163B   22348.97234526  .00109726  67349-5  56048-3 0  9998
2 54382  67.1319 333.0190 0453659  79.2480 285.9378 15.05385948  2127
2022-163C               
1 54383U 22163C   22349.34048436  .00000022  00000+0  69790-4 0  9997
2 54383  67.1419 337.8831 0011018 320.8653  39.1634 13.97182524  1733
1998-067UL              
1 54534U 98067UL  22342.06710887  .00092711  00000+0  15584-2 0  9995
2 54534  51.6402 195.1756 0008249 141.6648 218.4449 15.50947863   941
1998-067UM              
1 54535U 98067UM  22349.35947745  .00048890  00000+0  81229-3 0  9999
2 54535  51.6422 158.9762 0006700 172.0348 258.2797 15.51567063  2078
1998-067UN              
1 54536U 98067UN  22349.36011339  .00038496  00000+0  64663-3 0  9996
2 54536  51.6423 158.9816 0007070 171.1787 259.2330 15.51365630  2034
1998-067UP              
1 54537U 98067UP  22349.35954057  .00042653  00000+0  71220-3 0  9996
2 54537  51.6411 158.9794 0007046 170.2397 260.0718 15.51485427  2078
2022-164A               
1 54588U 22164A   22349.26906357  .00001077  00000+0  32408-3 0  9997
2 54588  98.3563  16.5133 0008644 252.4615 107.5671 14.44529135  1198
KZ-11 R/B               
1 54589U 22164B   22349.19302667  .00016032  21661-5  18135-3 0  9994
2 54589  98.3683  17.3003 0380973  78.0168 286.3478 15.07694661  1233
2022-165A               
1 54640U 22165A   22348.92155127  .00025325  00000+0  55293-2 0  9998
2 54640  98.1172 287.2965 0001155  86.6780 352.9448 14.57775137   906
2022-165B               
1 54641U 22165B   22349.23515516  .00000751  00000+0  14690-3 0  9999
2 54641  98.0286 287.4675 0033519 282.4459  77.3018 14.65352120   947
ONEWEB-0527             
1 54642U 22166A   22349.33334491  .00072085  00000+0  72007-2 0  9997
2 54642  86.5173 155.5246 0007262 210.4789  47.5897 14.91120366  1698
ONEWEB-0528             
1 54643U 22166B   22349.33334491  .00072028  00000+0  71978-2 0  9991
2 54643  86.5186 155.5257 0007216 211.2632  46.3888 14.91105044  1693
ONEWEB-0539             
1 54644U 22166C   22348.91667824  .00051331  00000+0  51064-2 0  9992
2 54644  86.5167 155.7049 0008420 211.5134 336.7384 14.91392191  1308
ONEWEB-0540             
1 54645U 22166D   22349.33334491  .00072229  00000+0  72381-2 0  9995
2 54645  86.5152 155.5230 0007002 214.7381  40.4042 14.90992691  1699
ONEWEB-0542             
1 54646U 22166E   22349.33334491  .00070814  00000+0  68636-2 0  9992
2 54646  86.5174 155.5194 0011931 220.8392  64.0277 14.92300754  1696
ONEWEB-0545             
1 54647U 22166F   22349.41667824  .00046640  00000+0  46809-2 0  9999
2 54647  86.5155 155.4865 0007173 212.6694 130.7619 14.91070301  1701
ONEWEB-0580             
1 54648U 22166G   22349.33334491  .00071113  00000+0  69392-2 0  9997
2 54648  86.5161 155.5212 0011306 216.2546  62.6741 14.92035757  1699
ONEWEB-0582             
1 54649U 22166H   22349.33334491  .00071645  00000+0  70790-2 0  9992
2 54649  86.5169 155.5200 0009364 209.8251  57.9906 14.91547747  1693
ONEWEB-0583             
1 54650U 22166J   22349.33334491  .00071503  00000+0  70372-2 0  9993
2 54650  86.5173 155.5217 0010027 209.8084  61.4497 14.91701726  1706
ONEWEB-0584             
1 54651U 22166K   22349.00001157 -.00014233  00000+0 -14240-2 0  9999
2 54651  86.5166 155.6665 0009556 210.8599  69.9813 14.91638448  1643
ONEWEB-0585             
1 54652U 22166L   22349.41667824  .00046894  00000+0  46701-2 0  9997
2 54652  86.5175 155.4870 0008500 208.8089 141.5542 14.91371374  1704
ONEWEB-0586             
1 54653U 22166M   22349.33334491  .00072242  00000+0  72676-2 0  9996
2 54653  86.5192 155.5276 0006570 219.4587  32.1209 14.90838500  1692
ONEWEB-0587             
1 54654U 22166N   22349.33334491  .00071710  00000+0  70949-2 0  9997
2 54654  86.5180 155.5254 0009140 209.2535  57.3632 14.91495450  1695
ONEWEB-0589             
1 54655U 22166P   22349.33334491  .00070891  00000+0  68806-2 0  9996
2 54655  86.5166 155.5204 0011750 220.2588  63.4337 14.92246689  1695
ONEWEB-0590             
1 54656U 22166Q   22349.33334491  .00071086  00000+0  69138-2 0  9993
2 54656  86.5159 155.5205 0011525 218.9157  62.9401 14.92165103  1692
ONEWEB-0591             
1 54657U 22166R   22349.33334491  .00070995  00000+0  69094-2 0  9993
2 54657  86.5190 155.5197 0011470 218.4350  62.8203 14.92139998  1699
ONEWEB-0592             
1 54658U 22166S   22349.33334491  .00072774  00000+0  73144-2 0  9992
2 54658  86.5153 155.5241 0006652 218.3540  33.9908 14.90872064  1692
ONEWEB-0593             
1 54659U 22166T   22349.00001157 -.00014183  00000+0 -14195-2 0  9990
2 54659  86.5179 155.6716 0009321 211.7574  67.9057 14.91625098  1640
ONEWEB-0594             
1 54660U 22166U   22349.33334491  .00071276  00000+0  69729-2 0  9995
2 54660  86.5173 155.5211 0010971 214.5291  62.1178 14.91935546  1693
